NORAD_CAT_ID,OBJECT_NAME,OBJECT_TYPE,EPOCH,MEAN_MOTION,ECCENTRICITY,INCLINATION,RA_OF_ASC_NODE,ARG_OF_PERICENTER,MEAN_ANOMALY,BSTAR,MEAN_MOTION_DOT,MEAN_MOTION_DDOT,TLE_LINE0,TLE_LINE1,TLE_LINE2,SEMIMAJOR_AXIS,PERIOD,APOGEE,PERIGEE,DECAYED
55790.0,STARLINK-5813,PAYLOAD,2024-01-30 04:39:09,14.98325581,0.0002463,70.0018,344.612,258.9134,101.1748,2.9953e-05,2.64e-06,0.0,0 STARLINK-5813,1 55790U 23028BB  24030.19385760  .00000264  00000-0  29953-4 0  9993,2 55790  70.0018 344.6120 0002463 258.9134 101.1748 14.98325581 51757,6950.207,96.107,573.783,570.36,0.0
55790.0,STARLINK-5813,PAYLOAD,2024-01-30 06:15:17,14.98327992,0.0002822,70.0013,344.4432,268.2085,91.8751,3.0848e-05,2.75e-06,0.0,0 STARLINK-5813,1 55790U 23028BB  24030.26061574  .00000275  00000-0  30848-4 0  9992,2 55790  70.0013 344.4432 0002822 268.2085  91.8751 14.98327992 51773,6950.199,96.107,574.025,570.103,0.0
55790.0,STARLINK-5813,PAYLOAD,2024-01-30 22:16:37,14.98334129,0.0002802,70.0008,342.7599,267.8963,92.1875,-2.3045e-05,-3.68e-06,0.0,0 STARLINK-5813,1 55790U 23028BB  24030.92821358 -.00000368  00000-0 -23045-4 0  9995,2 55790  70.0008 342.7599 0002802 267.8963  92.1875 14.98334129 51872,6950.18,96.107,573.993,570.098,0.0
55790.0,STARLINK-5813,PAYLOAD,2024-01-31 06:17:17,14.9833413,0.0002875,70.0009,341.9187,267.8893,92.1937,1.8141e-05,1.24e-06,0.0,0 STARLINK-5813,1 55790U 23028BB  24031.26201156  .00000124  00000-0  18141-4 0  9990,2 55790  70.0009 341.9187 0002875 267.8893  92.1937 14.98334130 51915,6950.18,96.107,574.043,570.047,0.0
55790.0,STARLINK-5813,PAYLOAD,2024-02-01 03:07:03,14.98327206,0.000285,70.0005,339.7294,268.1721,91.9111,-8.9962e-06,-2e-06,0.0,0 STARLINK-5813,1 55790U 23028BB  24032.12989637 -.00000200  00000-0 -89962-5 0  9990,2 55790  70.0005 339.7294 0002850 268.1721  91.9111 14.98327206 52044,6950.202,96.107,574.047,570.086,0.0
55790.0,STARLINK-5813,PAYLOAD,2024-02-01 06:19:18,14.98329743,0.000279,70.0007,339.3933,267.9113,92.1727,1.9613e-05,1.41e-06,0.0,0 STARLINK-5813,1 55790U 23028BB  24032.26341407  .00000141  00000-0  19613-4 0  9999,2 55790  70.0007 339.3933 0002790 267.9113  92.1727 14.98329743 52074,6950.194,96.107,573.998,570.12,0.0
55790.0,STARLINK-5813,PAYLOAD,2024-02-02 03:09:03,14.98333604,0.000247,70.0015,337.2058,259.5849,100.5032,3.8011e-05,3.61e-06,0.0,0 STARLINK-5813,1 55790U 23028BB  24033.13128977  .00000361  00000-0  38011-4 0  9998,2 55790  70.0015 337.2058 0002470 259.5849 100.5032 14.98333604 52193,6950.182,96.107,573.763,570.33,0.0
55790.0,STARLINK-5813,PAYLOAD,2024-02-02 06:21:19,14.98334178,0.0002481,70.0015,336.8692,260.2515,99.8364,4.1214e-05,3.99e-06,0.0,0 STARLINK-5813,1 55790U 23028BB  24033.26480897  .00000399  00000-0  41214-4 0  9994,2 55790  70.0015 336.8692 0002481 260.2515  99.8364 14.98334178 52222,6950.18,96.107,573.769,570.321,0.0
55790.0,STARLINK-5813,PAYLOAD,2024-02-02 22:22:40,14.98328493,0.0002388,70.0017,335.1856,262.1238,97.965,-2.4065e-05,-3.8e-06,0.0,0 STARLINK-5813,1 55790U 23028BB  24033.93241424 -.00000380  00000-0 -24065-4 0  9996,2 55790  70.0017 335.1856 0002388 262.1238  97.9650 14.98328493 52328,6950.198,96.107,573.722,570.403,0.0
55790.0,STARLINK-5813,PAYLOAD,2024-02-03 03:11:04,14.9832764,0.0002422,70.0016,334.6808,260.923,99.1655,-3.2422e-05,-4.8e-06,0.0,0 STARLINK-5813,1 55790U 23028BB  24034.13269501 -.00000480  00000-0 -32422-4 0  9992,2 55790  70.0016 334.6808 0002422 260.9230  99.1655 14.98327640 52349,6950.2,96.107,573.749,570.382,0.0
55790.0,STARLINK-5813,PAYLOAD,2024-02-03 06:23:20,14.98328048,0.0002439,70.0015,334.3437,263.2767,96.8114,-2.9684e-05,-4.47e-06,0.0,0 STARLINK-5813,1 55790U 23028BB  24034.26621490 -.00000447  00000-0 -29684-4 0  9994,2 55790  70.0015 334.3437 0002439 263.2767  96.8114 14.98328048 52372,6950.199,96.107,573.759,570.369,0.0
55790.0,STARLINK-5813,PAYLOAD,2024-02-03 22:24:41,14.98333073,0.0002542,70.0012,332.6608,263.8203,96.2667,3.1279e-06,-5.6e-07,0.0,0 STARLINK-5813,1 55790U 23028BB  24034.93380946 -.00000056  00000-0  31279-5 0  9995,2 55790  70.0012 332.6608 0002542 263.8203  96.2667 14.98333073 52478,6950.183,96.107,573.815,570.282,0.0
55790.0,STARLINK-5813,PAYLOAD,2024-02-04 03:13:05,14.98334298,0.0002589,70.001,332.1556,259.9973,100.0894,2.2771e-05,1.79e-06,0.0,0 STARLINK-5813,1 55790U 23028BB  24035.13408753  .00000179  00000-0  22771-4 0  9996,2 55790  70.0010 332.1556 0002589 259.9973 100.0894 14.98334298 52492,6950.18,96.107,573.844,570.245,0.0
55790.0,STARLINK-5813,PAYLOAD,2024-02-04 06:25:21,14.98335557,0.0002505,70.0013,331.8191,260.2461,99.8415,3.1857e-05,2.87e-06,0.0,0 STARLINK-5813,1 55790U 23028BB  24035.26760610  .00000287  00000-0  31857-4 0  9998,2 55790  70.0013 331.8191 0002505 260.2461  99.8415 14.98335557 52528,6950.176,96.107,573.782,570.3,0.0
55790.0,STARLINK-5813,PAYLOAD,2024-02-04 19:14:26,14.9832736,0.0002322,70.0016,330.4728,253.9528,106.1376,2.2363e-05,1.74e-06,0.0,0 STARLINK-5813,1 55790U 23028BB  24035.80169093  .00000174  00000-0  22363-4 0  9993,2 55790  70.0016 330.4728 0002322 253.9528 106.1376 14.98327360 52590,6950.201,96.107,573.68,570.452,0.0
55790.0,STARLINK-5813,PAYLOAD,2024-02-04 22:26:42,14.98325904,0.0002487,70.0011,330.1356,256.7075,103.3807,1.6321e-06,-7.3e-07,0.0,0 STARLINK-5813,1 55790U 23028BB  24035.93521244 -.00000073  00000-0  16321-5 0  9994,2 55790  70.0011 330.1356 0002487 256.7075 103.3807 14.98325904 52623,6950.206,96.107,573.799,570.342,0.0
55790.0,STARLINK-5813,PAYLOAD,2024-02-05 04:51:14,14.98326501,0.0002491,70.0013,329.4625,256.5124,103.5758,6.3618e-06,-1.7e-07,0.0,0 STARLINK-5813,1 55790U 23028BB  24036.20225248 -.00000017  00000-0  63618-5 0  9999,2 55790  70.0013 329.4625 0002491 256.5124 103.5758 14.98326501 52668,6950.204,96.107,573.8,570.337,0.0
55790.0,STARLINK-5813,PAYLOAD,2024-02-05 22:28:42,14.98333255,0.0002512,70.0014,327.6109,252.1563,107.9322,-1.4177e-05,-2.62e-06,0.0,0 STARLINK-5813,1 55790U 23028BB  24036.93660814 -.00000262  00000-0 -14177-4 0  9999,2 55790  70.0014 327.6109 0002512 252.1563 107.9322 14.98333255 52770,6950.183,96.107,573.794,570.302,0.0
55790.0,STARLINK-5813,PAYLOAD,2024-02-06 03:17:07,14.98333411,0.0002499,70.0015,327.1061,251.383,108.7058,-9.0142e-06,-2e-06,0.0,0 STARLINK-5813,1 55790U 23028BB  24037.13688751 -.00000200  00000-0 -90142-5 0  9991,2 55790  70.0015 327.1061 0002499 251.3830 108.7058 14.98333411 52796,6950.182,96.107,573.784,570.31,0.0
55790.0,STARLINK-5813,PAYLOAD,2024-02-06 04:53:15,14.98333855,0.0002497,70.0015,326.9378,251.5987,108.4901,-3.9481e-06,-1.4e-06,0.0,0 STARLINK-5813,1 55790U 23028BB  24037.20364697 -.00000140  00000-0 -39481-5 0  9991,2 55790  70.0015 326.9378 0002497 251.5987 108.4901 14.98333855 52816,6950.181,96.107,573.781,570.311,0.0
55790.0,STARLINK-5813,PAYLOAD,2024-02-06 22:30:43,14.98328997,0.0002594,70.0012,325.0871,257.4141,102.6728,1.6821e-05,1.08e-06,0.0,0 STARLINK-5813,1 55790U 23028BB  24037.93800856  .00000108  00000-0  16821-4 0  9997,2 55790  70.0012 325.0871 0002594 257.4141 102.6728 14.98328997 52922,6950.196,96.107,573.864,570.258,0.0
55790.0,STARLINK-5813,PAYLOAD,2024-02-07 03:19:07,14.98330663,0.0002561,70.0013,324.5824,256.7717,103.3156,3.6052e-05,3.37e-06,0.0,0 STARLINK-5813,1 55790U 23028BB  24038.13828693  .00000337  00000-0  36052-4 0  9991,2 55790  70.0013 324.5824 0002561 256.7717 103.3156 14.98330663 52948,6950.191,96.107,573.836,570.276,0.0
55790.0,STARLINK-5813,PAYLOAD,2024-02-07 12:55:56,14.98326806,0.0002423,70.0017,323.5713,271.2993,88.7889,-3.6539e-05,-5.29e-06,0.0,0 STARLINK-5813,1 55790U 23028BB  24038.53885271 -.00000529  00000-0 -36539-4 0  9995,2 55790  70.0017 323.5713 0002423 271.2993  88.7889 14.98326806 53015,6950.203,96.107,573.752,570.384,0.0
55790.0,STARLINK-5813,PAYLOAD,2024-02-07 19:20:29,14.98313426,0.0002506,70.0017,322.8984,276.3961,83.6912,0.00017585,2.005e-05,0.0,0 STARLINK-5813,1 55790U 23028BB  24038.80589377  .00002005  00000-0  17585-3 0  9991,2 55790  70.0017 322.8984 0002506 276.3961  83.6912 14.98313426 53048,6950.244,96.108,573.851,570.367,0.0
55790.0,STARLINK-5813,PAYLOAD,2024-02-07 22:32:45,14.98323035,0.000245,70.0013,322.5607,265.937,94.1509,-8.2332e-06,-1.91e-06,0.0,0 STARLINK-5813,1 55790U 23028BB  24038.93941412 -.00000191  00000-0 -82332-5 0  9997,2 55790  70.0013 322.5607 0002450 265.9370  94.1509 14.98323035 53078,6950.214,96.107,573.782,570.377,0.0
55790.0,STARLINK-5813,PAYLOAD,2024-02-08 04:57:17,14.98323908,0.0002375,70.0014,321.8874,265.7988,94.2899,1.7862e-05,1.2e-06,0.0,0 STARLINK-5813,1 55790U 23028BB  24039.20645397  .00000120  00000-0  17862-4 0  9996,2 55790  70.0014 321.8874 0002375 265.7988  94.2899 14.98323908 53102,6950.212,96.107,573.727,570.426,0.0
55790.0,STARLINK-5813,PAYLOAD,2024-02-08 22:34:46,14.98330185,0.0002625,70.0011,320.0359,274.5787,85.5072,-2.5747e-06,-1.24e-06,0.0,0 STARLINK-5813,1 55790U 23028BB  24039.94081060 -.00000124  00000-0 -25747-5 0  9996,2 55790  70.0011 320.0359 0002625 274.5787  85.5072 14.98330185 53225,6950.192,96.107,573.882,570.233,0.0
55790.0,STARLINK-5813,PAYLOAD,2024-02-09 03:23:09,14.98332091,0.0002569,70.0012,319.5307,274.2214,85.8651,5.9394e-05,6.16e-06,0.0,0 STARLINK-5813,1 55790U 23028BB  24040.14108753  .00000616  00000-0  59394-4 0  9997,2 55790  70.0012 319.5307 0002569 274.2214  85.8651 14.98332091 53247,6950.186,96.107,573.837,570.266,0.0
55790.0,STARLINK-5813,PAYLOAD,2024-02-09 04:59:18,14.98296939,0.0002687,70.0012,319.3623,266.6817,93.4035,0.00070281,8.296e-05,0.0,0 STARLINK-5813,1 55790U 23028BB  24040.20785445  .00008296  00000-0  70281-3 0  9992,2 55790  70.0012 319.3623 0002687 266.6817  93.4035 14.98296939 53253,6950.295,96.109,574.028,570.293,0.0
55790.0,STARLINK-5813,PAYLOAD,2024-02-09 19:24:31,14.98317538,0.0002448,70.0013,317.8483,261.1791,98.9091,0.00017566,2.003e-05,0.0,0 STARLINK-5813,1 55790U 23028BB  24040.80869278  .00002003  00000-0  17566-3 0  9992,2 55790  70.0013 317.8483 0002448 261.1791  98.9091 14.98317538 53348,6950.231,96.108,573.798,570.395,0.0
